{"type": "FeatureCollection", "features": [ {"type": "Feature", "properties": {"norad_id": 30121, "name": "FENGYUN 1C DEB", "group": "fengyun-1c-debris", "lat": 31.853096174941424, "lon": -145.7957334173636, "alt_km": 735.0772284105851, "timestamp": "2025-12-25T16:53:14.937476+00:00", "meta": {"OBJECT_NAME": "FENGYUN 1C DEB", "OBJECT_ID": "1999-025SA", "EPOCH": "2025-12-25T01:28:53.601600", "MEAN_MOTION": 14.40144888, "ECCENTRICITY": 0.00303435, "INCLINATION": 102.1638, "RA_OF_ASC_NODE": 25.5946, "ARG_OF_PERICENTER": 133.8664, "MEAN_ANOMALY": 286.9296, "EPHEMERIS_TYPE": 0, "CLASSIFICATION_TYPE": "U", "NORAD_CAT_ID": 30121, "ELEMENT_SET_NO": 999, "REV_AT_EPOCH": 97717, "BSTAR": 0.0020844722, "MEAN_MOTION_DOT": 6.552e-05, "MEAN_MOTION_DDOT": 0}, "tle": {"line1": "1 30121U 99025SA  25359.06173150  .00006552  00000+0  20845-2 0  9997", "line2": "2 30121 102.1638  25.5946 0030343 133.8664 286.9296 14.40144888977170"}}, "geometry": {"type": "Point", "coordinates": [-145.7957334173636, 31.853096174941424]}}, {"type": "Feature", "properties": {"norad_id": 30123, "name": "FENGYUN 1C DEB", "group": "fengyun-1c-debris", "lat": -19.625202435415453, "lon": -60.03949843291675, "alt_km": 737.3279069400578, "timestamp": "2025-12-25T16:53:14.937487+00:00", "meta": {"OBJECT_NAME": "FENGYUN 1C DEB", "OBJECT_ID": "1999-025SC", "EPOCH": "2025-12-24T19:05:13.651296", "MEAN_MOTION": 14.26094789, "ECCENTRICITY": 0.02307005, "INCLINATION": 96.9281, "RA_OF_ASC_NODE": 296.7557, "ARG_OF_PERICENTER": 48.3264, "MEAN_ANOMALY": 313.7416, "EPHEMERIS_TYPE": 0, "CLASSIFICATION_TYPE": "U", "NORAD_CAT_ID": 30123, "ELEMENT_SET_NO": 999, "REV_AT_EPOCH": 97419, "BSTAR": 0.0020038003, "MEAN_MOTION_DOT": 6.313e-05, "MEAN_MOTION_DDOT": 0}, "tle": {"line1": "1 30123U 99025SC  25358.79529689  .00006313  00000+0  20038-2 0  9999", "line2": "2 30123  96.9281 296.7557 0230700  48.3264 313.7416 14.26094789974191"}}, "geometry": {"type": "Point", "coordinates": [-60.03949843291675, -19.625202435415453]}}, {"type": "Feature", "properties": {"norad_id": 30124, "name": "FENGYUN 1C DEB", "group": "fengyun-1c-debris", "lat": 76.18733678816908, "lon": 13.00264458423569, "alt_km": 736.0738412727123, "timestamp": "2025-12-25T16:53:14.937497+00:00", "meta": {"OBJECT_NAME": "FENGYUN 1C DEB", "OBJECT_ID": "1999-025SD", "EPOCH": "2025-12-25T03:15:14.252832", "MEAN_MOTION": 14.14273443, "ECCENTRICITY": 0.01426501, "INCLINATION": 99.1305, "RA_OF_ASC_NODE": 53.2755, "ARG_OF_PERICENTER": 70.9851, "MEAN_ANOMALY": 357.7125, "EPHEMERIS_TYPE": 0, "CLASSIFICATION_TYPE": "U", "NORAD_CAT_ID": 30124, "ELEMENT_SET_NO": 999, "REV_AT_EPOCH": 97090, "BSTAR": 0.00081476116, "MEAN_MOTION_DOT": 1.67e-05, "MEAN_MOTION_DDOT": 0}, "tle": {"line1": "1 30124U 99025SD  25359.13558163  .00001670  00000+0  81476-3 0  9993", "line2": "2 30124  99.1305  53.2755 0142650  70.9851 357.7125 14.14273443970902"}}, "geometry": {"type": "Point", "coordinates": [13.00264458423569, 76.18733678816908]}}, {"type": "Feature", "properties": {"norad_id": 30125, "name": "FENGYUN 1C DEB", "group": "fengyun-1c-debris", "lat": -79.20135793996546, "lon": -135.19743759631723, "alt_km": 639.7030745144039, "timestamp": "2025-12-25T16:53:14.937508+00:00", "meta": {"OBJECT_NAME": "FENGYUN 1C DEB", "OBJECT_ID": "1999-025SE", "EPOCH": "2025-12-25T05:45:01.899648", "MEAN_MOTION": 14.22711137, "ECCENTRICITY": 0.03415727, "INCLINATION": 98.7231, "RA_OF_ASC_NODE": 97.9474, "ARG_OF_PERICENTER": 307.857, "MEAN_ANOMALY": 103.004, "EPHEMERIS_TYPE": 0, "CLASSIFICATION_TYPE": "U", "NORAD_CAT_ID": 30125, "ELEMENT_SET_NO": 999, "REV_AT_EPOCH": 97099, "BSTAR": 0.00065390696, "MEAN_MOTION_DOT": 2.614e-05, "MEAN_MOTION_DDOT": 0}, "tle": {"line1": "1 30125U 99025SE  25359.23960532  .00002614  00000+0  65391-3 0  9999", "line2": "2 30125  98.7231  97.9474 0341572 307.8570 103.0040 14.22711137970996"}}, "geometry": {"type": "Point", "coordinates": [-135.19743759631723, -79.20135793996546]}}, {"type": "Feature", "properties": {"norad_id": 30127, "name": "FENGYUN 1C DEB", "group": "fengyun-1c-debris", "lat": -48.026392763446395, "lon": -135.13144121970032, "alt_km": 769.6746609867614, "timestamp": "2025-12-25T16:53:14.937518+00:00", "meta": {"OBJECT_NAME": "FENGYUN 1C DEB", "OBJECT_ID": "1999-025SG", "EPOCH": "2025-12-25T02:05:02.806656", "MEAN_MOTION": 14.38162842, "ECCENTRICITY": 0.00859029, "INCLINATION": 98.2065, "RA_OF_ASC_NODE": 215.0477, "ARG_OF_PERICENTER": 42.1685, "MEAN_ANOMALY": 318.6069, "EPHEMERIS_TYPE": 0, "CLASSIFICATION_TYPE": "U", "NORAD_CAT_ID": 30127, "ELEMENT_SET_NO": 999, "REV_AT_EPOCH": 97413, "BSTAR": 0.0025326658, "MEAN_MOTION_DOT": 7.987e-05, "MEAN_MOTION_DDOT": 0}, "tle": {"line1": "1 30127U 99025SG  25359.08683804  .00007987  00000+0  25327-2 0  9990", "line2": "2 30127  98.2065 215.0477 0085902  42.1685 318.6069 14.38162842974137"}}, "geometry": {"type": "Point", "coordinates": [-135.13144121970032, -48.026392763446395]}}, {"type": "Feature", "properties": {"norad_id": 30128, "name": "FENGYUN 1C DEB", "group": "fengyun-1c-debris", "lat": -52.51085770574924, "lon": 5.363479223605697, "alt_km": 800.4331265089531, "timestamp": "2025-12-25T16:53:14.937529+00:00", "meta": {"OBJECT_NAME": "FENGYUN 1C DEB", "OBJECT_ID": "1999-025SH", "EPOCH": "2025-12-24T23:06:52.992576", "MEAN_MOTION": 14.46319967, "ECCENTRICITY": 0.01075341, "INCLINATION": 96.9804, "RA_OF_ASC_NODE": 355.5617, "ARG_OF_PERICENTER": 86.5689, "MEAN_ANOMALY": 327.8196, "EPHEMERIS_TYPE": 0, "CLASSIFICATION_TYPE": "U", "NORAD_CAT_ID": 30128, "ELEMENT_SET_NO": 999, "REV_AT_EPOCH": 97488, "BSTAR": 0.0028483591, "MEAN_MOTION_DOT": 0.00010954, "MEAN_MOTION_DDOT": 0}, "tle": {"line1": "1 30128U 99025SH  25358.96311334  .00010954  00000+0  28484-2 0  9998", "line2": "2 30128  96.9804 355.5617 0107534  86.5689 327.8196 14.46319967974888"}}, "geometry": {"type": "Point", "coordinates": [5.363479223605697, -52.51085770574924]}}, {"type": "Feature", "properties": {"norad_id": 30129, "name": "FENGYUN 1C DEB", "group": "fengyun-1c-debris", "lat": -16.817019653938136, "lon": -57.537394881329284, "alt_km": 849.6747367255084, "timestamp": "2025-12-25T16:53:14.937539+00:00", "meta": {"OBJECT_NAME": "FENGYUN 1C DEB", "OBJECT_ID": "1999-025SJ", "EPOCH": "2025-12-24T07:24:43.962624", "MEAN_MOTION": 14.01602215, "ECCENTRICITY": 0.01883375, "INCLINATION": 98.0307, "RA_OF_ASC_NODE": 298.7879, "ARG_OF_PERICENTER": 59.6448, "MEAN_ANOMALY": 91.6468, "EPHEMERIS_TYPE": 0, "CLASSIFICATION_TYPE": "U", "NORAD_CAT_ID": 30129, "ELEMENT_SET_NO": 999, "REV_AT_EPOCH": 96640, "BSTAR": 0.00064496865, "MEAN_MOTION_DOT": 1.105e-05, "MEAN_MOTION_DDOT": 0}, "tle": {"line1": "1 30129U 99025SJ  25358.30884216  .00001105  00000+0  64497-3 0  9994", "line2": "2 30129  98.0307 298.7879 0188337  59.6448  91.6468 14.01602215966401"}}, "geometry": {"type": "Point", "coordinates": [-57.537394881329284, -16.817019653938136]}}, {"type": "Feature", "properties": {"norad_id": 30131, "name": "FENGYUN 1C DEB", "group": "fengyun-1c-debris", "lat": -71.2314037530796, "lon": -116.15932141278604, "alt_km": 866.5583427929878, "timestamp": "2025-12-25T16:53:14.937549+00:00", "meta": {"OBJECT_NAME": "FENGYUN 1C DEB", "OBJECT_ID": "1999-025SL", "EPOCH": "2025-12-25T05:41:50.324928", "MEAN_MOTION": 14.21315609, "ECCENTRICITY": 0.00818918, "INCLINATION": 99.0739, "RA_OF_ASC_NODE": 91.4142, "ARG_OF_PERICENTER": 123.7878, "MEAN_ANOMALY": 264.5815, "EPHEMERIS_TYPE": 0, "CLASSIFICATION_TYPE": "U", "NORAD_CAT_ID": 30131, "ELEMENT_SET_NO": 999, "REV_AT_EPOCH": 96866, "BSTAR": 0.0023173249, "MEAN_MOTION_DOT": 5.186e-05, "MEAN_MOTION_DDOT": 0}, "tle": {"line1": "1 30131U 99025SL  25359.23738802  .00005186  00000+0  23173-2 0  9997", "line2": "2 30131  99.0739  91.4142 0081891 123.7878 264.5815 14.21315609968669"}}, "geometry": {"type": "Point", "coordinates": [-116.15932141278604, -71.2314037530796]}}, {"type": "Feature", "properties": {"norad_id": 30132, "name": "FENGYUN 1C DEB", "group": "fengyun-1c-debris", "lat": 79.47440841137688, "lon": -160.8743395398313, "alt_km": 889.0948170637375, "timestamp": "2025-12-25T16:53:14.937559+00:00", "meta": {"OBJECT_NAME": "FENGYUN 1C DEB", "OBJECT_ID": "1999-025SM", "EPOCH": "2025-12-24T20:02:47.368608", "MEAN_MOTION": 13.94866116, "ECCENTRICITY": 0.010553, "INCLINATION": 99.5794, "RA_OF_ASC_NODE": 312.8724, "ARG_OF_PERICENTER": 17.4263, "MEAN_ANOMALY": 37.5233, "EPHEMERIS_TYPE": 0, "CLASSIFICATION_TYPE": "U", "NORAD_CAT_ID": 30132, "ELEMENT_SET_NO": 999, "REV_AT_EPOCH": 96258, "BSTAR": 0.00048545628, "MEAN_MOTION_DOT": 6.35e-06, "MEAN_MOTION_DDOT": 0}, "tle": {"line1": "1 30132U 99025SM  25358.83527047  .00000635  00000+0  48546-3 0  9996", "line2": "2 30132  99.5794 312.8724 0105530  17.4263  37.5233 13.94866116962586"}}, "geometry": {"type": "Point", "coordinates": [-160.8743395398313, 79.47440841137688]}}, {"type": "Feature", "properties": {"norad_id": 30133, "name": "FENGYUN 1C DEB", "group": "fengyun-1c-debris", "lat": 11.920619408686433, "lon": -12.858962229460664, "alt_km": 836.4968782017859, "timestamp": "2025-12-25T16:53:14.937594+00:00", "meta": {"OBJECT_NAME": "FENGYUN 1C DEB", "OBJECT_ID": "1999-025SN", "EPOCH": "2025-12-24T23:36:31.233312", "MEAN_MOTION": 14.06730381, "ECCENTRICITY": 0.00859727, "INCLINATION": 98.3249, "RA_OF_ASC_NODE": 164.7069, "ARG_OF_PERICENTER": 225.7943, "MEAN_ANOMALY": 258.9092, "EPHEMERIS_TYPE": 0, "CLASSIFICATION_TYPE": "U", "NORAD_CAT_ID": 30133, "ELEMENT_SET_NO": 999, "REV_AT_EPOCH": 96550, "BSTAR": 0.0017557547, "MEAN_MOTION_DOT": 2.977e-05, "MEAN_MOTION_DDOT": 0}, "tle": {"line1": "1 30133U 99025SN  25358.98369483  .00002977  00000+0  17558-2 0  9990", "line2": "2 30133  98.3249 164.7069 0085972 225.7943 258.9092 14.06730381965506"}}, "geometry": {"type": "Point", "coordinates": [-12.858962229460664, 11.920619408686433]}}]}